AKEBONO (EXOS-D)        
1 19822U 89016A   16219.75161067  .00015017  86236-6  31506-3 0  9991
2 19822  75.0448 287.8921 1969967 285.6861  53.6366 11.55477524872739
HST                     
1 20580U 90037B   16219.52847126  .00000647  00000-0  29262-4 0  9990
2 20580  28.4700 286.2617 0002960  34.1142  95.6544 15.08444153242727
POLAR                   
1 23802U 96013A   16218.96854542 -.00000141  00000-0  00000+0 0  9991
2 23802  78.2984 278.1822 7481544 336.1780   2.7132  1.29842498 98061
SWAS                    
1 25560U 98071A   16219.88490156  .00000326  00000-0  39866-4 0  9990
2 25560  69.9004 330.9828 0010819 293.9348  66.0674 14.93126529958629
ORSTED                  
1 25635U 99008B   16219.83621040  .00000080  00000-0  26580-4 0  9993
2 25635  96.4536 192.6145 0139355 169.1678 191.2576 14.47908016920741
CXO                     
1 25867U 99040B   16220.68430924  .00000477  00000-0  00000-0 0  9995
2 25867  75.6372 296.7355 7027210 259.8425   0.2657  0.37804298  3735
XMM-NEWTON              
1 25989U 99066A   16220.58958540 -.00000538  00000-0  00000-0 0  9995
2 25989  67.8374  20.3522 8224302  95.1504   0.5214  0.50138079  4941
TERRA                   
1 25994U 99068A   16220.17959627  .00000124  00000-0  37493-4 0  9995
2 25994  98.2077 293.7575 0001077  65.8622 294.2718 14.57121813884945
CLUSTER II-FM6 (SALSA)  
1 26410U 00041A   16221.24706461 -.00000080  00000-0  00000+0 0  9998
2 26410 131.3196 329.8622 4932722 144.1157 359.2213  0.44202343 16119
CLUSTER II-FM7 (SAMBA)  
1 26411U 00041B   16221.31883298 -.00000218  00000-0  00000+0 0  9994
2 26411 130.3482 331.4899 5468315 151.0605 359.1433  0.44243641 16197
CLUSTER II-FM5 (RUMBA)  
1 26463U 00045A   16221.30991249 -.00000152  00000-0  00000+0 0  9997
2 26463 133.8356 329.3914 5165710 148.7954 359.2761  0.44238786 16693
CLUSTER II-FM8 (TANGO)  
1 26464U 00045B   16221.24615287 -.00000080  00000-0  00000+0 0  9996
2 26464 131.3155 329.8629 4932997 144.1211 359.2968  0.44201406 52032
ODIN                    
1 26702U 01007A   16220.15362671  .00000256  00000-0  21411-4 0  9993
2 26702  97.6253 234.4828 0012480  49.5009 310.7304 15.06690321844359
TIMED                   
1 26998U 01055B   16219.46376858  .00000140  00000-0  19431-4 0  9998
2 26998  74.0699 221.3132 0002312 293.8215  66.2723 14.87750748794673
RHESSI                  
1 27370U 02004A   16219.19305992  .00002892  00000-0  11329-3 0  9992
2 27370  38.0368 166.1992 0011697   5.0874 355.0012 15.26480906798080
INTEGRAL                
1 27540U 02048A   16221.10364452  .00000699  00000-0  00000+0 0  9992
2 27540  51.2713 203.1444 8101217 259.7993   0.4139  0.37590961 13125
CORIOLIS                
1 27640U 03001A   16220.15487809 -.00000001  00000-0  20661-4 0  9997
2 27640  98.7479 228.5744 0015028 126.7463 274.9563 14.18910834703412
SORCE                   
1 27651U 03004A   16220.18700516  .00000165  00000-0  31757-4 0  9996
2 27651  39.9953 271.2470 0022533 192.1470 167.8778 14.88409591733986
MOST                    
1 27843U 03031D   16219.55094099 -.00000015  00000-0  13224-4 0  9994
2 27843  98.7149 226.1681 0009574 194.4037 165.6868 14.20530690679285
SCISAT 1                
1 27858U 03036A   16219.77613053  .00000053  00000-0  12614-4 0  9999
2 27858  73.9328  88.5641 0009197 263.0466  96.9662 14.77053415699356
SWIFT                   
1 28485U 04047A   16219.17945929  .00001011  00000-0  40560-4 0  9999
2 28485  20.5559 176.1806 0011421 219.3122 140.6482 15.03238296640737
FORMOSAT-3 FM6          
1 29047U 06011A   16220.12815572  .00000099  00000-0  55530-4 0  9992
2 29047  71.9798 107.9743 0051259 332.4843  27.3580 14.28523501539918
FORMOSAT-3 FM1          
1 29048U 06011B   16218.92600735 -.00000020  00000-0  88431-5 0  9993
2 29048  71.9680  22.9150 0045522 290.5366 187.7162 14.28460907542222
FORMOSAT-3 FM5          
1 29049U 06011C   16219.31820198  .00000018  00000-0  23647-4 0  9998
2 29049  72.0192 185.7909 0036203 327.2683  32.6210 14.28490714538067
FORMOSAT-3 FM3          
1 29050U 06011D   16220.14684890  .00000191  00000-0  50953-4 0  9992
2 29050  72.0165 113.6709 0050131   5.2309 354.9356 14.58338864550785
FORMOSAT-3 FM4          
1 29051U 06011E   16219.83474045  .00000102  00000-0  55803-4 0  9997
2 29051  72.0058  89.3679 0069043 205.0174 154.7613 14.28511980540728
FORMOSAT-3 FM2          
1 29052U 06011F   16219.29794155  .00000042  00000-0  32926-4 0  9999
2 29052  72.0347 160.4885 0042039 292.1670  67.5008 14.28600807538963
CLOUDSAT                
1 29107U 06016A   16219.85728308  .00000098  00000-0  31692-4 0  9994
2 29107  98.2008 162.2948 0000934  44.5336 315.5938 14.57108489546658
CALIPSO                 
1 29108U 06016B   16220.19941612  .00000128  00000-0  38537-4 0  9998
2 29108  98.2010 162.1940 0001455  78.3728 281.7634 14.57107058546638
HINODE (SOLAR-B)        
1 29479U 06041A   16220.08271769  .00000080  00000-0  24099-4 0  9999
2 29479  98.1595 220.9849 0018371 123.3144 236.9820 14.64722956527417
SJ-6C                   
1 29505U 06046A   16220.15408892  .00000423  00000-0  44882-4 0  9994
2 29505  97.8081 217.5546 0004428  64.5210 295.6477 14.94194856532979
SJ-6D                   
1 29506U 06046B   16220.16816589  .00000275  00000-0  31836-4 0  9992
2 29506  97.8267 216.6687 0003492 104.3475 255.8120 14.93155082532697
AGILE                   
1 31135U 07013A   16219.13289350  .00002910  00000-0  63271-4 0  9999
2 31135   2.4686  39.9529 0013133 141.7109 218.3878 15.28366588515406
AIM                     
1 31304U 07015A   16220.00580197  .00001281  00000-0  80488-4 0  9999
2 31304  97.9753  18.8238 0006711 119.3317 240.8583 15.11198227507473
FGRST (GLAST)           
1 33053U 08029A   16219.47962819  .00000674  00000-0  22337-4 0  9996
2 33053  25.5836 345.0634 0012184 242.3860 117.5437 15.10652836449676
IBEX                    
1 33401U 08051A   16220.74780208 -.00001786  00000-0  00000+0 0  9994
2 33401  45.8195  20.7640 5032288 175.3204 358.6172  0.10986422  3292
WISE                    
1 36119U 09071A   16219.14624960  .00001284  00000-0  50747-4 0  9990
2 36119  97.4791 240.4680 0002919  24.1428 335.9947 15.27350790368179
SDO                     
1 36395U 10005A   16218.33856231 -.00000087  00000-0  00000-0 0  9997
2 36395  28.4439 146.1389 0000820 155.9021  31.9091  1.00269467 23938
CRYOSAT 2               
1 36508U 10013A   16219.45877082  .00000105  00000-0  25142-4 0  9991
2 36508  92.0289 126.3523 0007032 351.6312   8.4777 14.52173795335489
SPEKTR-R                
1 37755U 11037A   16219.97980044 -.00005439  00000-0  00000+0 0  9990
2 37755  53.0741 336.4001 9010645 310.6087   0.4109  0.10999542  2168
GCOM-W1 (SHIZUKU)       
1 38337U 12025A   16219.93027773  .00000059  00000-0  23093-4 0  9996
2 38337  98.2016 158.6067 0001626  61.2289 340.5708 14.57166108224608
NUSTAR                  
1 38358U 12031A   16219.15823189  .00001097  00000-0  42506-4 0  9998
2 38358   6.0268  75.1839 0011295  78.1860 281.9536 14.87450430225450
RBSP A                  
1 38752U 12046A   16219.90351378  .00000020  00000-0  11198-2 0  9997
2 38752  10.1630 337.7440 6813363 211.8416  77.9364  2.68112199 38454
RBSP B                  
1 38753U 12046B   16219.88364261  .00000011  00000-0  12061-2 0  9990
2 38753  10.1493 344.9925 6831624 197.8561 115.3575  2.65133556 38227
NEOSSAT                 
1 39089U 13009D   16220.12412027 -.00000004  00000-0  14080-4 0  9994
2 39089  98.5786  60.3520 0011648 143.6448 216.5530 14.34349864180377
BRITE-AUSTRIA           
1 39091U 13009F   16220.12999068  .00000012  00000-0  19608-4 0  9991
2 39091  98.5761  61.5289 0010973 153.3804 206.7947 14.34986097180459
UNIBRITE                
1 39092U 13009G   16219.54382440 -.00000007  00000-0  13139-4 0  9994
2 39092  98.5766  60.6778 0009948 147.8362 212.3432 14.34859947180359
IRIS                    
1 39197U 13033A   16220.10209656  .00000149  00000-0  27541-4 0  9996
2 39197  97.9183  40.6723 0029292 110.3831 250.0531 14.78241330167701
HISAKI (SPRINT-A)       
1 39253U 13049A   16220.21028519  .00000036  00000-0 -36953-4 0  9998
2 39253  29.7185 159.7666 0136706 355.3195   4.6098 13.55156944143615
CASSIOPE                
1 39265U 13055A   16219.89521314  .00004862  00000-0  14300-3 0  9992
2 39265  80.9740 339.5564 0700249  80.7801 287.1839 14.20059325146859
DANDE                   
1 39267U 13055C   16219.48080514  .00004479  00000-0  13357-3 0  9996
2 39267  81.0154 346.9745 0723127  93.7262 274.6832 14.14902742146497
STSAT-3                 
1 39422U 13066G   16220.19388454  .00000055  00000-0  11541-4 0  9995
2 39422  97.7008 285.9557 0022572 190.9107 169.1625 14.89226329147197
BRITE-PL                
1 39431U 13066R   16219.71977190  .00000127  00000-0  37284-4 0  9994
2 39431  97.6795 219.9734 0203171   9.9114 350.5995 14.46740538142980
SWARM B                 
1 39451U 13067A   16220.16707137  .00000623  00000-0  26816-4 0  9990
2 39451  87.7557 341.7829 0003220 110.7724 249.3866 15.20655218150128
SWARM A                 
1 39452U 13067B   16219.21978817  .00001664  00000-0  39299-4 0  9995
2 39452  87.3482 285.1202 0003575 100.6895 259.4763 15.41008011151617
SWARM C                 
1 39453U 13067C   16219.21974213  .00001660  00000-0  39216-4 0  9997
2 39453  87.3485 286.5330 0003600 100.3190 259.8471 15.41007062151572
BRITE-TORONTO           
1 40020U 14033L   16220.20917118  .00000095  00000-0  25161-4 0  9990
2 40020  97.8800  98.2425 0086407 244.8778 114.3443 14.66285059114074
OCO 2                   
1 40059U 14035A   16219.84995561  .00000062  00000-0  23764-4 0  9991
2 40059  98.2015 159.7177 0000944 104.1294 256.0010 14.57112605111616
BRITE-PL 2              
1 40119U 14049B   16220.22085153  .00000189  00000-0  29229-4 0  9996
2 40119  97.9583 301.4425 0018443  37.3919 322.8574 14.83959427106593
RESURS P2               
1 40360U 14087A   16220.20990870  .00001853  00000-0  62109-4 0  9998
2 40360  97.2855 313.2173 0008301 155.2604 266.5419 15.32145815 90317
MMS 1                   
1 40482U 15011A   16219.57699527 -.00000315  00000-0  00000+0 0  9994
2 40482  28.7139 333.2567 8146888 113.4046 358.1729  1.00493248  5158
MMS 2                   
1 40483U 15011B   16219.35599906 -.00000313  00000-0  00000+0 0  9999
2 40483  28.7133 333.2772 8153392 113.3665 278.2434  1.00493268  5141
MMS 3                   
1 40484U 15011C   16219.57665032 -.00000314  00000-0  00000+0 0  9999
2 40484  28.6999 333.2521 8149234 113.3691 358.1578  1.00493221  5159
MMS 4                   
1 40485U 15011D   16219.57676338 -.00000314  00000-0  00000+0 0  9991
2 40485  28.7334 333.2556 8149435 113.3704 358.1849  1.00493224  5143
ASTROSAT                
1 40930U 15052A   16219.94038578  .00000782  00000-0  21276-4 0  9991
2 40930   5.9982 314.3191 0007989 116.3139 243.7837 14.76010808 46447
DAMPE                   
1 41173U 15078A   16220.11580190  .00000174  00000-0  10189-4 0  9998
2 41173  97.2933 231.0153 0013765 176.2217 271.1791 15.23402443 35648
